satname,norad_id,inclination_deg,eccentricity,mean_motion_rev_per_day,perigee_km,apogee_km,l1,l2
STARLINK-1151,45081,53.056,0.0001334,15.06407772,546.2638996600162,548.1115763001089,1 45081U 20006AP  25324.49426132  .00008856  00000+0  61257-3 0  9993,2 45081  53.0560  36.8894 0001334  72.1058 288.0077 15.06407772320287
STARLINK-1190,45083,53.0327,0.0003605,16.12286053,238.19341056124904,242.96550512735485,1 45083U 20006AR  25324.71440697  .01003571  62893-3  89773-3 0  9997,2 45083  53.0327 333.0010 0003605 343.0096  17.0817 16.12286053321195
STARLINK-1185,45087,53.0559,0.0001094,15.06405636,546.4366532213444,547.9519157063851,1 45087U 20006AV  25324.53663936  .00003455  00000+0  25070-3 0  9992,2 45087  53.0559  16.6239 0001094  98.7902 261.3211 15.06405636320578
STARLINK-1183,45088,53.0552,0.000155,15.06408253,546.1128386915198,548.2596889032957,1 45088U 20006AW  25324.55875911  .00004100  00000+0  29392-3 0  9992,2 45088  53.0552  16.5267 0001550  86.1352 273.9815 15.06408253320576
STARLINK-1142,45093,53.0314,0.0008481,15.70727096,351.1058665102255,362.5296968108787,1 45093U 20006BB  25324.91668980  .00266251  00000+0  20413-2 0  9995,2 45093  53.0314 299.5090 0008481  79.7310  93.1732 15.70727096  5948
STARLINK-1152,45096,53.0442,0.0003916,15.25793482,485.71485522957664,491.0927299783443,1 45096U 20006BE  25324.51467854  .00051144  00000+0  19746-2 0  9991,2 45096  53.0442 356.3090 0003916 268.4614  91.5934 15.25793482320855
STARLINK-1184,45098,53.056,0.0001375,15.06411103,546.2252983036678,548.1297597991561,1 45098U 20006BG  25324.57349716  .00003819  00000+0  27507-3 0  9996,2 45098  53.0560  16.4613 0001375  81.9975 278.1170 15.06411103320578
STARLINK-1193,45100,53.0571,0.000176,15.06402348,545.9855015861467,548.4232217454519,1 45100U 20006BJ  25324.43712561  .00003493  00000+0  25324-3 0  9990,2 45100  53.0571  17.0727 0001760  90.2801 269.8390 15.06402348320556
STARLINK-1143,45179,53.0488,0.0008848,15.4346397,429.86607922615894,441.92419049200544,1 45179U 20012B   25324.48057517  .00106048  00000+0  23067-2 0  9992,2 45179  53.0488 135.5530 0008848 119.4507 240.7382 15.43463970318968
STARLINK-1202,45183,53.0543,0.0001438,15.06401078,546.212389377979,548.2041186730366,1 45183U 20012F   25323.90266506  .00000176  00000+0  30697-4 0  9997,2 45183  53.0543 179.4742 0001438  88.1901 271.9253 15.06401078318294
STARLINK-1216,45185,53.054,0.0001653,15.06395477,546.0806579084528,548.3701827246086,1 45185U 20012H   25324.62510832  .00000912  00000+0  80122-4 0  9999,2 45185  53.0540 176.2289 0001653  95.4504 264.6673 15.06395477318349
STARLINK-1225,45187,53.0512,0.0001127,15.06388745,546.4655624369498,548.0265437771204,1 45187U 20012K   25323.98007666 -.00002024  00000+0 -11709-3 0  9997,2 45187  53.0512 179.1225 0001127  97.4552 262.6565 15.06388745318295
STARLINK-1230,45189,53.0524,0.000132,15.06399151,546.300013649101,548.1283063553419,1 45189U 20012M   25324.31549029  .00002606  00000+0  19376-3 0  9993,2 45189  53.0524 177.6220 0001320  90.7484 269.3656 15.06399151315579
STARLINK-1234,45190,53.052,0.0004404,15.38816576,446.60071348231577,452.61459097199804,1 45190U 20012N   25324.17609088  .00021330  00000+0  55598-3 0  9992,2 45190  53.0520 130.9480 0004404 126.0156 234.1255 15.38816576318895
STARLINK-1269,45197,53.0538,0.000134,15.06393496,546.3034924553458,548.1594912111577,1 45197U 20012V   25324.32655184  .00000746  00000+0  68994-4 0  9997,2 45197  53.0538 177.5707 0001340  94.9768 265.1374 15.06393496318328
STARLINK-1154,45198,53.0516,4.41e-05,15.06432145,546.8076363681375,547.4184434216568,1 45198U 20012W   25324.25095588 -.00018241  00000+0 -12078-2 0  9997,2 45198  53.0516 157.9069 0000441  36.5259 323.5760 15.06432145318565
STARLINK-1199,45201,53.0537,0.0001329,15.06382526,546.3447278083422,548.1854996901775,1 45201U 20012Z   25324.66013716  .00001404  00000+0  11315-3 0  9995,2 45201  53.0537 156.0729 0001329 102.8987 257.2151 15.06382526318684
STARLINK-1209,45206,53.0525,0.0001943,15.3269536,466.4443241234294,469.10464532639344,1 45206U 20012AE  25324.76953845  .00086436  00000+0  26801-2 0  9990,2 45206  53.0525 129.6317 0001943 186.2224 173.8753 15.32695360318118
STARLINK-1210,45207,53.0223,0.0007224,15.61838432,377.4629441992829,387.23049107452425,1 45207U 20012AF  25324.91668980  .00103537  00000+0  11616-2 0  9991,2 45207  53.0223  87.0357 0007224 122.7304  38.8443 15.61838432  5937
STARLINK-1231,45212,53.0497,0.0007998,15.13540969,519.8901530593002,530.9330694178379,1 45212U 20012AL  25324.52204303  .00020557  00000+0  11464-2 0  9990,2 45212  53.0497 154.1087 0007998 109.6834 250.5022 15.13540969318656
STARLINK-1271,45217,53.0517,0.0001286,15.06395593,546.3344632299504,548.1156663530146,1 45217U 20012AR  25324.24730000  .00003132  00000+0  22908-3 0  9998,2 45217  53.0517 157.9249 0001286  98.1249 261.9886 15.06395593318625
STARLINK-1191,45222,53.0539,0.0001357,15.06394365,546.2890563126039,548.1686005984466,1 45222U 20012AW  25324.52190161  .00001025  00000+0  87724-4 0  9990,2 45222  53.0539 136.6912 0001357  98.2285 261.8858 15.06394365318945
STARLINK-1212,45223,53.0498,0.0001576,15.06395702,546.1332937118104,548.3161677293338,1 45223U 20012AX  25324.20867513  .00001403  00000+0  11309-3 0  9993,2 45223  53.0498 138.7545 0001576  94.3118 265.8051 15.06395702318899
STARLINK-1215,45225,53.051,0.0001423,15.06432948,546.1251161736909,548.0960416346479,1 45225U 20012AZ  25323.89895905  .00006652  00000+0  46466-3 0  9998,2 45225  53.0510 139.4875 0001423  89.9073 270.2079 15.06432948318806
STARLINK-1221,45227,53.0688,0.0004228,15.37593974,450.3382127794057,456.1148137662285,1 45227U 20012BB  25324.47571307  .00015508  00000+0  42373-3 0  9995,2 45227  53.0688  65.4314 0004228  37.6223 322.5075 15.37593974319880
STARLINK-1222,45228,53.0535,0.0001391,15.06398933,546.2515117022376,548.1781445808265,1 45228U 20012BC  25323.79945322 -.00005338  00000+0 -33977-3 0  9994,2 45228  53.0535 139.9349 0001391  96.3087 263.8060 15.06398933318722
STARLINK-1226,45229,53.0519,0.0001434,15.06400186,546.2178929736629,548.2040827765859,1 45229U 20012BD  25324.49241272  .00001087  00000+0  91879-4 0  9997,2 45229  53.0519 136.8220 0001434  99.5465 260.5686 15.06400186318836
STARLINK-1227,45230,53.0541,0.0001413,15.06415641,546.1850759630315,548.1421659185089,1 45230U 20012BE  25324.22333666  .00003751  00000+0  27046-3 0  9993,2 45230  53.0541 138.0304 0001413  99.0133 261.1016 15.06415641318919
STARLINK-1246,45235,53.0535,0.0001152,15.06400579,546.4119834377907,548.0075833366827,1 45235U 20012BK  25324.30442720 -.00002262  00000+0 -13303-3 0  9998,2 45235  53.0535 177.6678 0001152  96.8805 263.2315 15.06400579318370
STARLINK-1270,45237,53.0541,0.000123,15.06407715,546.3360977110988,548.039727639617,1 45237U 20012BM  25324.50714840  .00002321  00000+0  17460-3 0  9999,2 45237  53.0541 136.7569 0001230  86.1333 273.9797 15.06407715318943
STARLINK-1279,45360,53.0527,0.0007679,15.37537267,448.14854745116645,458.64041349888066,1 45360U 20019A   25324.75567503  .00069490  00000+0  18514-2 0  9992,2 45360  53.0527 258.8737 0007679  79.2479 280.9388 15.37537267313819
STARLINK-1301,45361,53.0514,0.0007176,15.40252782,440.466103333044,450.25919002595856,1 45361U 20019B   25324.91668980  .00073413  00000+0  17886-2 0  9993,2 45361  53.0514 267.4762 0007176  73.9467 126.7895 15.40252782  5863
STARLINK-1306,45362,53.0445,0.0006051,15.77493871,333.4802741176518,341.60759118234455,1 45362U 20019C   25324.91668980  .00150759  00000+0  87769-3 0  9991,2 45362  53.0445 252.4779 0006051  46.9016 305.9511 15.77493871  5918
STARLINK-1262,45366,53.0542,0.0001297,15.06406698,546.2928145635897,548.0892446544703,1 45366U 20019G   25324.21964564  .00000064  00000+0  23214-4 0  9994,2 45366  53.0542 298.0436 0001297  90.2563 269.8574 15.06406698313239
STARLINK-1273,45367,53.0545,0.0001635,15.06394536,546.0960071346735,548.3606015891992,1 45367U 20019H   25324.63985316 -.00000299  00000+0 -11848-5 0  9992,2 45367  53.0545 296.1589 0001635  94.6726 265.4449 15.06394536313292
STARLINK-1276,45368,53.0553,0.0001494,15.06402638,546.168826993372,548.2381187266628,1 45368U 20019J   25324.21227703 -.00000888  00000+0 -40709-4 0  9997,2 45368  53.0553 298.0809 0001494  87.2943 272.8217 15.06402638313232
STARLINK-1277,45369,53.0544,0.0001318,15.06397453,546.3066021686482,548.132126106234,1 45369U 20019K   25324.20498832  .00002218  00000+0  16775-3 0  9992,2 45369  53.0544 298.7395 0001318  86.6909 273.4230 15.06397453313229
STARLINK-1281,45370,53.0553,0.0001534,15.06398498,546.1538121808226,548.2785105307275,1 45370U 20019L   25324.20122543  .00000990  00000+0  85335-4 0  9991,2 45370  53.0553 298.1319 0001534  87.0808 273.0356 15.06398498313230
STARLINK-1300,45374,53.0546,0.000225,15.0639483,545.6691962982386,548.7856102797186,1 45374U 20019Q   25324.62142382 -.00000313  00000+0 -20951-5 0  9999,2 45374  53.0546 296.2426 0002250  91.5017 268.6230 15.06394830313295
STARLINK-1302,45375,53.0546,0.0001459,15.06399268,546.2033927318325,548.2242100956846,1 45375U 20019R   25324.37077566 -.00000761  00000+0 -32171-4 0  9996,2 45375  53.0546 297.3690 0001459  88.9637 271.1519 15.06399268313254
STARLINK-1304,45376,53.0554,0.0001281,15.06392169,546.3484187045824,548.1226991541798,1 45376U 20019S   25324.65459259  .00000912  00000+0  80141-4 0  9997,2 45376  53.0554 296.0932 0001281 101.6498 258.4634 15.06392169313293
STARLINK-1305,45377,53.0537,0.0005749,15.34161554,459.47883721500875,467.34525030552413,1 45377U 20019T   25324.91668980  .00097683  00000+0  28852-2 0  9990,2 45377  53.0537 288.8516 0005749  69.5625   3.1579 15.34161554  5798
STARLINK-1319,45379,53.0534,0.000428,15.38679606,447.0903923304486,452.93528859388516,1 45379U 20019V   25324.91668980  .00100516  00000+0  25670-2 0  9997,2 45379  53.0534 290.6012 0004280  80.8049 214.6988 15.38679606  5793
